[{"OBJECT_NAME":"GAOFEN-1 03","OBJECT_ID":"2018-031B","EPOCH":"2026-03-09T23:48:52.763904","MEAN_MOTION":14.76478861,"ECCENTRICITY":0.00036922,"INCLINATION":98.0633,"RA_OF_ASC_NODE":131.613,"ARG_OF_PERICENTER":51.6467,"MEAN_ANOMALY":308.5074,"EPHEMERIS_TYPE":0,"CLASSIFICATION_TYPE":"U","NORAD_CAT_ID":43260,"ELEMENT_SET_NO":999,"REV_AT_EPOCH":42805,"BSTAR":0.00016454166,"MEAN_MOTION_DOT":1.094e-5,"MEAN_MOTION_DDOT":0},{"OBJECT_NAME":"PEGASUS DEB","OBJECT_ID":"1994-029YH","EPOCH":"2026-03-09T13:48:40.247712","MEAN_MOTION":13.39711213,"ECCENTRICITY":0.0728479,"INCLINATION":81.5431,"RA_OF_ASC_NODE":97.4781,"ARG_OF_PERICENTER":287.3771,"MEAN_ANOMALY":203.8925,"EPHEMERIS_TYPE":0,"CLASSIFICATION_TYPE":"U","NORAD_CAT_ID":24581,"ELEMENT_SET_NO":999,"REV_AT_EPOCH":42256,"BSTAR":0.0015334,"MEAN_MOTION_DOT":4.131e-5,"MEAN_MOTION_DDOT":0}]
